NORAD_CAT_ID,OBJECT_NAME,OBJECT_TYPE,EPOCH,MEAN_MOTION,ECCENTRICITY,INCLINATION,RA_OF_ASC_NODE,ARG_OF_PERICENTER,MEAN_ANOMALY,BSTAR,MEAN_MOTION_DOT,MEAN_MOTION_DDOT,TLE_LINE0,TLE_LINE1,TLE_LINE2,SEMIMAJOR_AXIS,PERIOD,APOGEE,PERIGEE,DECAYED
53708.0,STARLINK-4694,PAYLOAD,2024-01-22 11:26:24,15.08838321,0.0001393,53.2159,118.032,96.4585,263.6566,0.0001315,1.805e-05,0.0,0 STARLINK-4694,1 53708U 22107J   24022.47666910  .00001805  00000-0  13150-3 0  9991,2 53708  53.2159 118.0320 0001393  96.4585 263.6566 15.08838321 76981,6917.886,95.438,540.714,538.787,0.0
53708.0,STARLINK-4694,PAYLOAD,2024-01-22 13:01:47,15.08840239,0.0001394,53.216,117.7336,95.6831,264.432,0.00012985,1.779e-05,0.0,0 STARLINK-4694,1 53708U 22107J   24022.54290773  .00001779  00000-0  12985-3 0  9994,2 53708  53.2160 117.7336 0001394  95.6831 264.4320 15.08840239 77745,6917.88,95.438,540.709,538.78,0.0
53708.0,STARLINK-4694,PAYLOAD,2024-01-23 12:52:33,15.08848257,0.0001359,53.2165,113.2717,90.8195,269.2953,7.2354e-05,8.64e-06,0.0,0 STARLINK-4694,1 53708U 22107J   24023.53650302  .00000864  00000-0  72354-4 0  9993,2 53708  53.2165 113.2717 0001359  90.8195 269.2953 15.08848257 77142,6917.855,95.437,540.66,538.78,0.0
53708.0,STARLINK-4694,PAYLOAD,2024-01-24 11:07:58,15.088347,0.0001391,53.2173,109.1092,106.5207,253.5938,-2.8573e-05,-7.43e-06,0.0,0 STARLINK-4694,1 53708U 22107J   24024.46387173 -.00000743  00000-0 -28573-4 0  9991,2 53708  53.2173 109.1092 0001391 106.5207 253.5938 15.08834700 77288,6917.897,95.438,540.724,538.799,0.0
53708.0,STARLINK-4694,PAYLOAD,2024-01-24 12:43:21,15.08835465,0.0001422,53.2173,108.8116,106.1215,253.9933,-2.0361e-05,-6.12e-06,0.0,0 STARLINK-4694,1 53708U 22107J   24024.53011061 -.00000612  00000-0 -20361-4 0  9991,2 53708  53.2173 108.8116 0001422 106.1215 253.9933 15.08835465 78044,6917.894,95.438,540.743,538.776,0.0
53708.0,STARLINK-4694,PAYLOAD,2024-01-25 12:34:08,15.08843336,0.0001262,53.2168,104.3536,91.4537,268.66,3.9639e-05,3.43e-06,0.0,0 STARLINK-4694,1 53708U 22107J   24025.52371201  .00000343  00000-0  39639-4 0  9993,2 53708  53.2168 104.3536 0001262  91.4537 268.6600 15.08843336 78196,6917.87,95.437,540.608,538.862,0.0
53708.0,STARLINK-4694,PAYLOAD,2024-01-26 10:49:33,15.08816185,0.0001815,53.2183,100.1871,60.4612,299.6561,0.00057644,8.892e-05,0.0,0 STARLINK-4694,1 53708U 22107J   24026.45108478  .00008892  00000-0  57644-3 0  9992,2 53708  53.2183 100.1871 0001815  60.4612 299.6561 15.08816185 77587,6917.953,95.439,541.074,538.563,0.0
53708.0,STARLINK-4694,PAYLOAD,2024-01-26 12:24:57,15.08818204,0.0002041,53.2183,99.8912,60.5997,299.5199,0.00093686,0.00014645,0.0,0 STARLINK-4694,1 53708U 22107J   24026.51733048  .00014645  00000-0  93686-3 0  9995,2 53708  53.2183  99.8912 0002041  60.5997 299.5199 15.08818204 78341,6917.947,95.439,541.224,538.4,0.0
53708.0,STARLINK-4694,PAYLOAD,2024-01-27 12:15:43,15.08843486,0.000207,53.2191,95.4274,57.3069,302.8123,9.2332e-05,1.182e-05,0.0,0 STARLINK-4694,1 53708U 22107J   24027.51092006  .00001182  00000-0  92332-4 0  9998,2 53708  53.2191  95.4274 0002070  57.3069 302.8123 15.08843486 77747,6917.87,95.437,541.167,538.303,0.0
53708.0,STARLINK-4694,PAYLOAD,2024-01-27 13:51:06,15.08844408,0.000196,53.219,95.1287,59.9543,300.1644,9.2707e-05,1.188e-05,0.0,0 STARLINK-4694,1 53708U 22107J   24027.57715879  .00001188  00000-0  92707-4 0  9996,2 53708  53.2190  95.1287 0001960  59.9543 300.1644 15.08844408 78508,6917.867,95.437,541.088,538.376,0.0
53708.0,STARLINK-4694,PAYLOAD,2024-01-28 10:31:07,15.08832815,0.0002108,53.2195,91.2617,61.3982,298.7222,0.00024972,3.688e-05,0.0,0 STARLINK-4694,1 53708U 22107J   24028.43828180  .00003688  00000-0  24972-3 0  9997,2 53708  53.2195  91.2617 0002108  61.3982 298.7222 15.08832815 77889,6917.902,95.438,541.226,538.309,0.0
53708.0,STARLINK-4694,PAYLOAD,2024-01-29 10:21:53,15.08847884,0.0001613,53.2174,86.8032,78.5464,281.5709,0.00011251,1.503e-05,0.0,0 STARLINK-4694,1 53708U 22107J   24029.43187222  .00001503  00000-0  11251-3 0  9993,2 53708  53.2174  86.8032 0001613  78.5464 281.5709 15.08847884 78032,6917.856,95.437,540.837,538.605,0.0
53708.0,STARLINK-4694,PAYLOAD,2024-01-29 13:32:40,15.08847825,0.0001604,53.2174,86.2101,80.255,279.8624,0.0001041,1.369e-05,0.0,0 STARLINK-4694,1 53708U 22107J   24029.56435186  .00001369  00000-0  10410-3 0  9998,2 53708  53.2174  86.2101 0001604  80.2550 279.8624 15.08847825 78805,6917.856,95.437,540.831,538.612,0.0
53708.0,STARLINK-4694,PAYLOAD,2024-01-30 03:51:08,15.08838049,0.0001615,53.2178,83.5293,115.1593,244.9566,2.1856e-05,6e-07,0.0,0 STARLINK-4694,1 53708U 22107J   24030.16051847  .00000060  00000-0  21856-4 0  9998,2 53708  53.2178  83.5293 0001615 115.1593 244.9566 15.08838049 78141,6917.886,95.438,540.869,538.634,0.0
53708.0,STARLINK-4694,PAYLOAD,2024-01-30 10:12:41,15.08840259,0.0001523,53.217,82.3412,97.6678,262.4487,1.3579e-05,-7.2e-07,0.0,0 STARLINK-4694,1 53708U 22107J   24030.42547812 -.00000072  00000-0  13579-4 0  9996,2 53708  53.2170  82.3412 0001523  97.6678 262.4487 15.08840259 78939,6917.88,95.438,540.798,538.691,0.0
53708.0,STARLINK-4694,PAYLOAD,2024-01-31 10:03:28,15.0882408,0.0001717,53.2171,77.8812,102.7948,257.3236,0.00027441,4.08e-05,0.0,0 STARLINK-4694,1 53708U 22107J   24031.41908157  .00004080  00000-0  27441-3 0  9993,2 53708  53.2171  77.8812 0001717 102.7948 257.3236 15.08824080 78339,6917.929,95.439,540.982,538.606,0.0
53708.0,STARLINK-4694,PAYLOAD,2024-01-31 13:14:14,15.08838315,0.000162,53.2173,77.2891,102.0663,258.0511,5.3208e-05,5.59e-06,0.0,0 STARLINK-4694,1 53708U 22107J   24031.55155926  .00000559  00000-0  53208-4 0  9994,2 53708  53.2173  77.2891 0001620 102.0663 258.0511 15.08838315 79108,6917.886,95.438,540.871,538.63,0.0
53708.0,STARLINK-4694,PAYLOAD,2024-02-01 11:29:39,15.08835508,0.0001611,53.2174,73.1262,94.4144,265.7032,7.6599e-05,9.31e-06,0.0,0 STARLINK-4694,1 53708U 22107J   24032.47892410  .00000931  00000-0  76599-4 0  9994,2 53708  53.2174  73.1262 0001611  94.4144 265.7032 15.08835508 79243,6917.894,95.438,540.874,538.645,0.0
53708.0,STARLINK-4694,PAYLOAD,2024-02-02 11:20:25,15.08842339,0.0001684,53.218,68.6656,80.5451,279.5732,0.00010153,1.328e-05,0.0,0 STARLINK-4694,1 53708U 22107J   24033.47252191  .00001328  00000-0  10153-3 0  9995,2 53708  53.2180  68.6656 0001684  80.5451 279.5732 15.08842339 79399,6917.873,95.437,540.903,538.573,0.0
53708.0,STARLINK-4694,PAYLOAD,2024-02-03 01:38:54,15.08836046,0.0001728,53.2173,65.9944,71.0565,289.0615,0.00010348,1.359e-05,0.0,0 STARLINK-4694,1 53708U 22107J   24034.06868749  .00001359  00000-0  10348-3 0  9993,2 53708  53.2173  65.9944 0001728  71.0565 289.0615 15.08836046 78732,6917.892,95.438,540.953,538.562,0.0
53708.0,STARLINK-4694,PAYLOAD,2024-02-03 09:35:50,15.08841332,0.0001713,53.2176,64.5076,71.7384,288.3794,8.1626e-05,1.011e-05,0.0,0 STARLINK-4694,1 53708U 22107J   24034.39988585  .00001011  00000-0  81626-4 0  9993,2 53708  53.2176  64.5076 0001713  71.7384 288.3794 15.08841332 79539,6917.876,95.437,540.926,538.556,0.0
53708.0,STARLINK-4694,PAYLOAD,2024-02-03 19:08:08,15.08841711,0.0001658,53.2177,62.7241,78.2386,281.8792,6.1345e-05,6.88e-06,0.0,0 STARLINK-4694,1 53708U 22107J   24034.79732569  .00000688  00000-0  61345-4 0  9991,2 53708  53.2177  62.7241 0001658  78.2386 281.8792 15.08841711 79599,6917.875,95.437,540.887,538.593,0.0
53708.0,STARLINK-4694,PAYLOAD,2024-02-04 07:51:13,15.08843214,0.0001697,53.218,60.3453,78.5322,281.5861,4.372e-05,4.08e-06,0.0,0 STARLINK-4694,1 53708U 22107J   24035.32724534  .00000408  00000-0  43720-4 0  9991,2 53708  53.2180  60.3453 0001697  78.5322 281.5861 15.08843214 78928,6917.871,95.437,540.91,538.562,0.0
53708.0,STARLINK-4694,PAYLOAD,2024-02-05 10:52:46,15.08848557,0.00014,53.2163,55.2865,97.0267,263.0885,0.00010372,1.364e-05,0.0,0 STARLINK-4694,1 53708U 22107J   24036.45331747  .00001364  00000-0  10372-3 0  9994,2 53708  53.2163  55.2865 0001400  97.0267 263.0885 15.08848557 79090,6917.854,95.437,540.688,538.751,0.0
53708.0,STARLINK-4694,PAYLOAD,2024-02-06 04:22:01,15.0883558,0.0001599,53.2173,52.0133,105.792,254.3249,9.7842e-05,1.269e-05,0.0,0 STARLINK-4694,1 53708U 22107J   24037.18196613  .00001269  00000-0  97842-4 0  9998,2 53708  53.2173  52.0133 0001599 105.7920 254.3249 15.08835580 79208,6917.894,95.438,540.865,538.653,0.0
53708.0,STARLINK-4694,PAYLOAD,2024-02-06 07:32:48,15.08841079,0.000174,53.2182,51.4223,101.8519,258.2668,2.8352e-05,1.63e-06,0.0,0 STARLINK-4694,1 53708U 22107J   24037.31444541  .00000163  00000-0  28352-4 0  9991,2 53708  53.2182  51.4223 0001740 101.8519 258.2668 15.08841079 79972,6917.877,95.437,540.946,538.538,0.0
53708.0,STARLINK-4694,PAYLOAD,2024-02-07 05:48:11,15.08846753,0.0001646,53.2176,47.2599,96.9107,263.2072,6.3596e-05,7.24e-06,0.0,0 STARLINK-4694,1 53708U 22107J   24038.24180190  .00000724  00000-0  63596-4 0  9993,2 53708  53.2176  47.2599 0001646  96.9107 263.2072 15.08846753 79368,6917.86,95.437,540.863,538.586,0.0
53708.0,STARLINK-4694,PAYLOAD,2024-02-07 16:55:53,15.08844608,0.0001616,53.2175,45.1778,93.4458,266.6719,2.4346e-05,9.9e-07,0.0,0 STARLINK-4694,1 53708U 22107J   24038.70548385  .00000099  00000-0  24346-4 0  9993,2 53708  53.2175  45.1778 0001616  93.4458 266.6719 15.08844608 80185,6917.866,95.437,540.849,538.613,0.0
53708.0,STARLINK-4694,PAYLOAD,2024-02-08 04:03:36,15.08835514,0.0001795,53.2187,43.0996,101.5571,258.5623,6.1178e-05,6.86e-06,0.0,0 STARLINK-4694,1 53708U 22107J   24039.16917048  .00000686  00000-0  61178-4 0  9996,2 53708  53.2187  43.0996 0001795 101.5571 258.5623 15.08835514 79506,6917.894,95.438,541.001,538.517,0.0
53708.0,STARLINK-4694,PAYLOAD,2024-02-08 07:14:22,15.08837825,0.0001776,53.219,42.5051,103.9031,256.2159,7.3393e-05,8.8e-06,0.0,0 STARLINK-4694,1 53708U 22107J   24039.30164926  .00000880  00000-0  73393-4 0  9999,2 53708  53.2190  42.5051 0001776 103.9031 256.2159 15.08837825 80274,6917.887,95.438,540.981,538.523,0.0
